{
    "links": {
        "self": "http://www.neowsapp.com/rest/v1/neo/3678015?api_key=iIulBulltgU6a56xZRHN4H3l9WmuAYTsLGpBGhQ2"
    },
    "id": "3678015",
    "neo_reference_id": "3678015",
    "name": "(2014 OV299)",
    "designation": "2014 OV299",
    "nasa_jpl_url": "http://ssd.jpl.nasa.gov/sbdb.cgi?sstr=3678015",
    "absolute_magnitude_h": 26.3,
    "estimated_diameter": {
        "kilometers": {
            "estimated_diameter_min": 0.0146067964,
            "estimated_diameter_max": 0.0326617897
        },
        "meters": {
            "estimated_diameter_min": 14.6067964271,
            "estimated_diameter_max": 32.6617897446
        },
        "miles": {
            "estimated_diameter_min": 0.0090762397,
            "estimated_diameter_max": 0.020295089
        },
        "feet": {
            "estimated_diameter_min": 47.92256199,
            "estimated_diameter_max": 107.1581062656
        }
    },
    "is_potentially_hazardous_asteroid": false,
    "close_approach_data": [
        {
            "close_approach_date": "2014-08-06",
            "close_approach_date_full": "2014-Aug-06 20:12",
            "epoch_date_close_approach": 1407355920000,
            "relative_velocity": {
                "kilometers_per_second": "13.3810303651",
                "kilometers_per_hour": "48171.7093142729",
                "miles_per_hour": "29932.0268236381"
            },
            "miss_distance": {
                "astronomical": "0.0246187733",
                "lunar": "9.5767028137",
                "kilometers": "3682916.047692871",
                "miles": "2288457.9148327798"
            },
            "orbiting_body": "Earth"
        }
    ],
    "orbital_data": {
        "orbit_id": "4",
        "orbit_determination_date": "2019-07-11 06:01:28",
        "first_observation_date": "2014-07-26",
        "last_observation_date": "2014-08-01",
        "data_arc_in_days": 6,
        "observations_used": 17,
        "orbit_uncertainty": "8",
        "minimum_orbit_intersection": ".0179853",
        "jupiter_tisserand_invariant": "3.721",
        "epoch_osculation": "2456868.5",
        "eccentricity": ".5503619952285429",
        "semi_major_axis": "1.915451177565277",
        "inclination": "7.348441884171484",
        "ascending_node_longitude": "128.3239119108047",
        "orbital_period": "968.289131416438",
        "perihelion_distance": ".8612596457175893",
        "perihelion_argument": "243.3071069119345",
        "aphelion_distance": "2.969642709412965",
        "perihelion_time": "2456917.936631204059",
        "mean_anomaly": "341.619965921308",
        "mean_motion": ".3717897767512715",
        "equinox": "J2000",
        "orbit_class": {
            "orbit_class_type": "APO",
            "orbit_class_description": "Near-Earth asteroid orbits which cross the Earth’s orbit similar to that of 1862 Apollo",
            "orbit_class_range": "a (semi-major axis) > 1.0 AU; q (perihelion) < 1.017 AU"
        }
    },
    "is_sentry_object": false
}